{"fetched_at":"2026-07-13T07:48:31.924Z","source":"https://celestrak.org/NORAD/elements/gp.php?NAME=LEGION&FORMAT=JSON","constellation":"maxar-legion","records":[{"OBJECT_NAME":"LEGION 1","OBJECT_ID":"2024-081A","EPOCH":"2026-07-12T19:46:52.597632","CLASSIFICATION_TYPE":"U","MEAN_MOTION":15.16835153,"ECCENTRICITY":0.0007679,"INCLINATION":97.5015,"RA_OF_ASC_NODE":271.4091,"ARG_OF_PERICENTER":279.4111,"MEAN_ANOMALY":80.6254,"EPHEMERIS_TYPE":0,"NORAD_CAT_ID":59625,"ELEMENT_SET_NO":999,"REV_AT_EPOCH":12142,"BSTAR":0.00012185,"MEAN_MOTION_DOT":0.0000233,"MEAN_MOTION_DDOT":0},{"OBJECT_NAME":"LEGION 2","OBJECT_ID":"2024-081B","EPOCH":"2026-07-12T18:55:35.128128","CLASSIFICATION_TYPE":"U","MEAN_MOTION":15.16813682,"ECCENTRICITY":0.001009,"INCLINATION":97.5015,"RA_OF_ASC_NODE":271.4707,"ARG_OF_PERICENTER":242.8369,"MEAN_ANOMALY":117.1836,"EPHEMERIS_TYPE":0,"NORAD_CAT_ID":59626,"ELEMENT_SET_NO":999,"REV_AT_EPOCH":12142,"BSTAR":0.00010765,"MEAN_MOTION_DOT":0.0000205,"MEAN_MOTION_DDOT":0},{"OBJECT_NAME":"LEGION 3","OBJECT_ID":"2024-146A","EPOCH":"2026-07-12T15:13:19.111008","CLASSIFICATION_TYPE":"U","MEAN_MOTION":15.15646217,"ECCENTRICITY":0.0008436,"INCLINATION":45.0011,"RA_OF_ASC_NODE":254.1157,"ARG_OF_PERICENTER":320.1785,"MEAN_ANOMALY":39.8474,"EPHEMERIS_TYPE":0,"NORAD_CAT_ID":60452,"ELEMENT_SET_NO":999,"REV_AT_EPOCH":10588,"BSTAR":0.00011666,"MEAN_MOTION_DOT":0.00001993,"MEAN_MOTION_DDOT":0},{"OBJECT_NAME":"LEGION 4","OBJECT_ID":"2024-146B","EPOCH":"2026-07-12T19:57:44.732736","CLASSIFICATION_TYPE":"U","MEAN_MOTION":15.1567091,"ECCENTRICITY":0.0008933,"INCLINATION":45.0029,"RA_OF_ASC_NODE":344.9236,"ARG_OF_PERICENTER":98.768,"MEAN_ANOMALY":261.421,"EPHEMERIS_TYPE":0,"NORAD_CAT_ID":60453,"ELEMENT_SET_NO":999,"REV_AT_EPOCH":10476,"BSTAR":0.00014839,"MEAN_MOTION_DOT":0.00002609,"MEAN_MOTION_DDOT":0},{"OBJECT_NAME":"LEGION 5","OBJECT_ID":"2025-025A","EPOCH":"2026-07-12T07:19:27.084576","CLASSIFICATION_TYPE":"U","MEAN_MOTION":15.16061682,"ECCENTRICITY":0.00084479,"INCLINATION":44.9997,"RA_OF_ASC_NODE":166.714,"ARG_OF_PERICENTER":288.2536,"MEAN_ANOMALY":71.7424,"EPHEMERIS_TYPE":0,"NORAD_CAT_ID":62900,"ELEMENT_SET_NO":999,"REV_AT_EPOCH":7830,"BSTAR":0.000096844928,"MEAN_MOTION_DOT":0.00001631,"MEAN_MOTION_DDOT":0},{"OBJECT_NAME":"LEGION 6","OBJECT_ID":"2025-025B","EPOCH":"2026-07-12T19:56:34.561248","CLASSIFICATION_TYPE":"U","MEAN_MOTION":15.15679663,"ECCENTRICITY":0.001083,"INCLINATION":45.0016,"RA_OF_ASC_NODE":73.035,"ARG_OF_PERICENTER":264.511,"MEAN_ANOMALY":95.4533,"EPHEMERIS_TYPE":0,"NORAD_CAT_ID":62901,"ELEMENT_SET_NO":999,"REV_AT_EPOCH":7952,"BSTAR":0.00009672,"MEAN_MOTION_DOT":0.00001609,"MEAN_MOTION_DDOT":0}]}
